NORAD_CAT_ID,OBJECT_NAME,OBJECT_TYPE,EPOCH,MEAN_MOTION,ECCENTRICITY,INCLINATION,RA_OF_ASC_NODE,ARG_OF_PERICENTER,MEAN_ANOMALY,BSTAR,MEAN_MOTION_DOT,MEAN_MOTION_DDOT,TLE_LINE0,TLE_LINE1,TLE_LINE2,SEMIMAJOR_AXIS,PERIOD,APOGEE,PERIGEE,DECAYED
52853.0,STARLINK-4189,PAYLOAD,2023-07-20 15:05:19,15.08839702,9.77e-05,53.2181,27.4386,100.1239,259.9863,2.3922e-05,9.3e-07,0.0,0 STARLINK-4189,1 52853U 22062Z   23201.62870334  .00000093  00000-0  23922-4 0  9990,2 52853  53.2181  27.4386 0000977 100.1239 259.9863 15.08839702 61028,6917.881,95.438,540.422,539.07,0.0
52853.0,STARLINK-4189,PAYLOAD,2023-07-20 21:26:51,15.08846599,0.0001071,53.2184,26.2491,102.1631,257.9482,9.316e-05,1.195e-05,0.0,0 STARLINK-4189,1 52853U 22062Z   23201.89365702  .00001195  00000-0  93160-4 0  9992,2 52853  53.2184  26.2491 0001071 102.1631 257.9482 15.08846599 61060,6917.86,95.437,540.466,538.984,0.0
52853.0,STARLINK-4189,PAYLOAD,2023-07-21 14:56:06,15.08838919,9.83e-05,53.2182,22.9786,79.4527,280.6576,0.00012203,1.655e-05,0.0,0 STARLINK-4189,1 52853U 22062Z   23202.62230211  .00001655  00000-0  12203-3 0  9999,2 52853  53.2182  22.9786 0000983  79.4527 280.6576 15.08838919 61175,6917.884,95.438,540.429,539.069,0.0
52853.0,STARLINK-4189,PAYLOAD,2023-07-24 11:17:41,15.08844637,0.000154,53.2174,10.1933,68.786,291.3297,1.9169e-05,1.7e-07,0.0,0 STARLINK-4189,1 52853U 22062Z   23205.47062364  .00000017  00000-0  19169-4 0  9997,2 52853  53.2174  10.1933 0001540  68.7860 291.3297 15.08844637 61117,6917.866,95.437,540.797,538.666,0.0
52853.0,STARLINK-4189,PAYLOAD,2023-07-25 11:08:29,15.08837747,0.0001139,53.2183,5.7329,77.2874,282.8245,-6.4309e-06,-3.9e-06,0.0,0 STARLINK-4189,1 52853U 22062Z   23206.46422831 -.00000390  00000-0 -64309-5 0  9999,2 52853  53.2183   5.7329 0001139  77.2874 282.8245 15.08837747 61268,6917.887,95.438,540.54,538.964,0.0
52853.0,STARLINK-4189,PAYLOAD,2023-07-26 12:34:39,15.08841402,0.0001132,53.2191,0.9741,85.8178,274.2944,2.0216e-05,3.4e-07,0.0,0 STARLINK-4189,1 52853U 22062Z   23207.52406621  .00000034  00000-0  20216-4 0  9997,2 52853  53.2191   0.9741 0001132  85.8178 274.2944 15.08841402 61429,6917.876,95.437,540.524,538.958,0.0
52853.0,STARLINK-4189,PAYLOAD,2023-07-26 18:56:11,15.08845558,0.0001599,53.2194,359.7881,71.585,288.5316,6.9389e-05,8.17e-06,0.0,0 STARLINK-4189,1 52853U 22062Z   23207.78902214  .00000817  00000-0  69389-4 0  9997,2 52853  53.2194 359.7881 0001599  71.5850 288.5316 15.08845558 61469,6917.863,95.437,540.835,538.622,0.0
52853.0,STARLINK-4189,PAYLOAD,2023-07-27 02:53:07,15.08838933,0.0001177,53.2183,358.3014,97.0936,263.019,-7.6297e-05,-1.502e-05,0.0,0 STARLINK-4189,1 52853U 22062Z   23208.12022782 -.00001502  00000-0 -76297-4 0  9999,2 52853  53.2183 358.3014 0001177  97.0936 263.0190 15.08838933 61513,6917.884,95.438,540.563,538.934,0.0
52853.0,STARLINK-4189,PAYLOAD,2023-07-27 17:11:36,15.08832707,0.00012,53.2195,355.6222,91.933,268.1799,2.9327e-05,1.79e-06,0.0,0 STARLINK-4189,1 52853U 22062Z   23208.71639245  .00000179  00000-0  29327-4 0  9991,2 52853  53.2195 355.6222 0001200  91.9330 268.1799 15.08832707 62093,6917.903,95.438,540.598,538.938,0.0
52853.0,STARLINK-4189,PAYLOAD,2023-07-27 20:22:22,15.08832559,0.0001152,53.2191,355.0273,82.3616,277.7507,2.6165e-05,1.29e-06,0.0,0 STARLINK-4189,1 52853U 22062Z   23208.84887330  .00000129  00000-0  26165-4 0  9997,2 52853  53.2191 355.0273 0001152  82.3616 277.7507 15.08832559 61622,6917.903,95.438,540.565,538.971,0.0
52853.0,STARLINK-4189,PAYLOAD,2023-07-28 12:16:13,15.08838896,8.53e-05,53.2155,352.0505,65.5004,294.6077,2.3364e-05,8.4e-07,0.0,0 STARLINK-4189,1 52853U 22062Z   23209.51127128  .00000084  00000-0  23364-4 0  9992,2 52853  53.2155 352.0505 0000853  65.5004 294.6077 15.08838896 61729,6917.884,95.438,540.339,539.159,0.0
52853.0,STARLINK-4189,PAYLOAD,2023-07-29 02:34:41,15.08845521,9.14e-05,53.2185,349.3764,93.2403,266.8693,-1.8251e-05,-5.78e-06,0.0,0 STARLINK-4189,1 52853U 22062Z   23210.10742640 -.00000578  00000-0 -18251-4 0  9990,2 52853  53.2185 349.3764 0000914  93.2403 266.8693 15.08845521 62300,6917.864,95.437,540.361,539.096,0.0
52853.0,STARLINK-4189,PAYLOAD,2023-07-29 16:53:09,15.08866189,0.0001379,53.2181,346.7007,100.0415,260.0732,-0.00012986,-2.356e-05,0.0,0 STARLINK-4189,1 52853U 22062Z   23210.70357640 -.00002356  00000-0 -12986-3 0  9992,2 52853  53.2181 346.7007 0001379 100.0415 260.0732 15.08866189 62395,6917.8,95.436,540.619,538.711,0.0
52853.0,STARLINK-4189,PAYLOAD,2023-07-30 18:19:20,15.08844072,9.74e-05,53.218,341.9433,82.2729,277.8374,3.2025e-05,2.22e-06,0.0,0 STARLINK-4189,1 52853U 22062Z   23211.76342884  .00000222  00000-0  32025-4 0  9998,2 52853  53.2180 341.9433 0000974  82.2729 277.8374 15.08844072 62556,6917.868,95.437,540.407,539.059,0.0
52853.0,STARLINK-4189,PAYLOAD,2023-07-31 18:10:06,15.08854796,0.0001036,53.2184,337.4825,82.1619,277.949,9.3901e-05,1.208e-05,0.0,0 STARLINK-4189,1 52853U 22062Z   23212.75701914  .00001208  00000-0  93901-4 0  9996,2 52853  53.2184 337.4825 0001036  82.1619 277.9490 15.08854796 62703,6917.835,95.437,540.417,538.983,0.0
52853.0,STARLINK-4189,PAYLOAD,2023-08-01 14:50:08,15.0884268,0.0001023,53.2179,333.6167,67.1649,292.9451,5.8962e-05,6.51e-06,0.0,0 STARLINK-4189,1 52853U 22062Z   23213.61814829  .00000651  00000-0  58962-4 0  9991,2 52853  53.2179 333.6167 0001023  67.1649 292.9451 15.08842680 62833,6917.872,95.437,540.445,539.029,0.0
52853.0,STARLINK-4189,PAYLOAD,2023-08-02 19:27:03,15.08854715,9.34e-05,53.2181,328.2638,79.4218,280.688,7.5765e-05,9.19e-06,0.0,0 STARLINK-4189,1 52853U 22062Z   23214.81045947  .00000919  00000-0  75765-4 0  9998,2 52853  53.2181 328.2638 0000934  79.4218 280.6880 15.08854715 63010,6917.835,95.437,540.347,539.054,0.0
52853.0,STARLINK-4189,PAYLOAD,2023-08-03 08:10:09,15.08841282,0.0001337,53.2185,325.8831,93.3711,266.7434,6.832e-05,8e-06,0.0,0 STARLINK-4189,1 52853U 22062Z   23215.34038913  .00000800  00000-0  68320-4 0  9990,2 52853  53.2185 325.8831 0001337  93.3711 266.7434 15.08841282 63096,6917.876,95.437,540.666,538.817,0.0
52853.0,STARLINK-4189,PAYLOAD,2023-08-03 17:42:27,15.08851265,0.0001073,53.2184,324.0993,100.0256,260.0858,0.00014557,2.03e-05,0.0,0 STARLINK-4189,1 52853U 22062Z   23215.73781947  .00002030  00000-0  14557-3 0  9994,2 52853  53.2184 324.0993 0001073 100.0256 260.0858 15.08851265 63158,6917.846,95.437,540.453,538.969,0.0
52853.0,STARLINK-4189,PAYLOAD,2023-08-04 11:11:43,15.08834264,0.0001009,53.2183,320.8292,90.4585,269.6523,-8.366e-05,-1.619e-05,0.0,0 STARLINK-4189,1 52853U 22062Z   23216.46648006 -.00001619  00000-0 -83660-4 0  9999,2 52853  53.2183 320.8292 0001009  90.4585 269.6523 15.08834264 63265,6917.898,95.438,540.461,539.065,0.0
52853.0,STARLINK-4189,PAYLOAD,2023-08-04 19:08:39,15.08842584,0.0001248,53.218,319.342,77.6901,282.423,-1.4681e-06,-3.11e-06,0.0,0 STARLINK-4189,1 52853U 22062Z   23216.79767416 -.00000311  00000-0 -14681-5 0  9998,2 52853  53.2180 319.3420 0001248  77.6901 282.4230 15.08842584 63310,6917.872,95.437,540.601,538.874,0.0
52853.0,STARLINK-4189,PAYLOAD,2023-08-05 15:48:39,15.08855698,0.0001122,53.2169,315.4799,86.6726,273.4395,0.00028005,4.174e-05,0.0,0 STARLINK-4189,1 52853U 22062Z   23217.65878604  .00004174  00000-0  28005-3 0  9998,2 52853  53.2169 315.4799 0001122  86.6726 273.4395 15.08855698 63445,6917.832,95.437,540.474,538.921,0.0
52853.0,STARLINK-4189,PAYLOAD,2023-08-05 23:45:35,15.0884044,0.0001522,53.2172,313.99,77.9411,282.1751,4.8045e-05,4.77e-06,0.0,0 STARLINK-4189,1 52853U 22062Z   23217.98999393  .00000477  00000-0  48045-4 0  9992,2 52853  53.2172 313.9900 0001522  77.9411 282.1751 15.08840440 63491,6917.879,95.438,540.797,538.691,0.0
52853.0,STARLINK-4189,PAYLOAD,2023-08-06 10:53:18,15.08829497,0.0001276,53.2163,311.9101,104.2734,255.8399,-4.7912e-05,-1.05e-05,0.0,0 STARLINK-4189,1 52853U 22062Z   23218.45368259 -.00001050  00000-0 -47912-4 0  9998,2 52853  53.2163 311.9101 0001276 104.2734 255.8399 15.08829497 63562,6917.912,95.438,540.66,538.895,0.0
52853.0,STARLINK-4189,PAYLOAD,2023-08-07 05:57:55,15.08835086,9.08e-05,53.2169,308.34,105.6076,254.5017,0.00013434,1.851e-05,0.0,0 STARLINK-4189,1 52853U 22062Z   23219.24856211  .00001851  00000-0  13434-3 0  9994,2 52853  53.2169 308.3400 0000908 105.6076 254.5017 15.08835086 63682,6917.895,95.438,540.389,539.132,0.0
52853.0,STARLINK-4189,PAYLOAD,2023-08-07 17:05:36,15.08854692,0.0001044,53.2166,306.2592,99.9744,260.1366,0.00021365,3.115e-05,0.0,0 STARLINK-4189,1 52853U 22062Z   23219.71223235  .00003115  00000-0  21365-3 0  9997,2 52853  53.2166 306.2592 0001044  99.9744 260.1366 15.08854692 63759,6917.835,95.437,540.423,538.978,0.0
52853.0,STARLINK-4189,PAYLOAD,2023-08-08 16:56:24,15.08848154,0.0001039,53.2168,301.7977,109.4626,250.6478,0.00021557,3.145e-05,0.0,0 STARLINK-4189,1 52853U 22062Z   23220.70583628  .00003145  00000-0  21557-3 0  9999,2 52853  53.2168 301.7977 0001039 109.4626 250.6478 15.08848154 63909,6917.855,95.437,540.439,539.002,0.0
52853.0,STARLINK-4189,PAYLOAD,2023-08-09 08:50:16,15.08835439,0.0001169,53.2174,298.8235,110.1086,250.0032,2.5283e-05,1.15e-06,0.0,0 STARLINK-4189,1 52853U 22062Z   23221.36824236  .00000115  00000-0  25283-4 0  9990,2 52853  53.2174 298.8235 0001169 110.1086 250.0032 15.08835439 64006,6917.894,95.438,540.568,538.951,0.0
52853.0,STARLINK-4189,PAYLOAD,2023-08-09 16:47:11,15.08846833,0.0001085,53.2175,297.3377,96.3953,263.7162,7.7615e-05,9.48e-06,0.0,0 STARLINK-4189,1 52853U 22062Z   23221.69943670  .00000948  00000-0  77615-4 0  9990,2 52853  53.2175 297.3377 0001085  96.3953 263.7162 15.08846833 64053,6917.86,95.437,540.475,538.974,0.0
52853.0,STARLINK-4189,PAYLOAD,2023-08-10 03:54:53,15.08832367,6.95e-05,53.217,295.2571,110.0327,250.074,1.4366e-05,-5.9e-07,0.0,0 STARLINK-4189,1 52853U 22062Z   23222.16312409 -.00000059  00000-0  14366-4 0  9991,2 52853  53.2170 295.2571 0000695 110.0327 250.0740 15.08832367 64122,6917.904,95.438,540.25,539.288,0.0
